[{"OBJECT_NAME":"HULIANWANG DIGUI-94","OBJECT_ID":"2025-231H","EPOCH":"2026-03-09T19:28:33.910176","MEAN_MOTION":13.29331193,"ECCENTRICITY":6.471e-5,"INCLINATION":50.0055,"RA_OF_ASC_NODE":171.9956,"ARG_OF_PERICENTER":210.588,"MEAN_ANOMALY":149.4954,"EPHEMERIS_TYPE":0,"CLASSIFICATION_TYPE":"U","NORAD_CAT_ID":66002,"ELEMENT_SET_NO":999,"REV_AT_EPOCH":1967,"BSTAR":0.00011373874,"MEAN_MOTION_DOT":-7.1e-7,"MEAN_MOTION_DDOT":0},{"OBJECT_NAME":"FENGYUN 1C DEB","OBJECT_ID":"1999-025ESX","EPOCH":"2026-03-08T02:20:19.114944","MEAN_MOTION":13.74250671,"ECCENTRICITY":0.02256967,"INCLINATION":98.3782,"RA_OF_ASC_NODE":303.5378,"ARG_OF_PERICENTER":235.7273,"MEAN_ANOMALY":122.2324,"EPHEMERIS_TYPE":0,"CLASSIFICATION_TYPE":"U","NORAD_CAT_ID":38512,"ELEMENT_SET_NO":999,"REV_AT_EPOCH":60742,"BSTAR":0.0011797103,"MEAN_MOTION_DOT":1.299e-5,"MEAN_MOTION_DDOT":0}]
